320P/McNaught,e,4.9088,295.9289,0.7617,3.094408,0.1810663,0.68568378,299.4965,02/18.0/2020,2000,g 20.5,4.0
# From MPC105243
321P/SOHO,e,20.0441,165.0481,172.7226,2.423060,0.2613110,0.98106094,0.0000,01/17.2509/2020,2000,g 20.0,4.0
# From MPC102103
322P/SOHO,e,11.4604,351.4734,56.9318,2.508718,0.2480426,0.97977569,0.0000,08/31.5133/2019,2000,g 19.0,4.0
# From MPEC 2016-Y36
323P/SOHO,e,5.3343,324.3751,353.0444,2.582524,0.2374857,0.98481880,0.0000,01/17.7546/2021,2000,g 20.0,4.0
# From MPC108598
324P/La Sagra,e,21.4239,270.6422,58.1689,3.094421,0.1810652,0.15445570,279.4275,02/18.0/2020,2000,g 13.0,4.0
# From MPC114609
325P/Yang-Gao,e,16.7014,257.5798,343.6774,3.524292,0.1489691,0.59382861,245.3071,02/18.0/2020,2000,g 14.0,4.0
# From MPC103849
326P/Hill,e,2.4707,99.8146,278.6011,4.065068,0.1202548,0.31707064,190.0805,02/18.0/2020,2000,g 13.5,4.0
# From MPC 97499
327P/Van Ness,e,36.2362,173.9668,185.0199,3.563312,0.1465289,0.56258365,224.0496,02/18.0/2020,2000,g 16.0,4.0
# From MPC109148
328P/LONEOS-Tucker,e,17.6641,341.6122,30.4944,4.196861,0.1146350,0.55132847,173.9141,02/18.0/2020,2000,g 14.5,4.0
# From MPC101101
329P/LINEAR-Catalina,e,21.6637,87.6853,343.5765,5.193943,0.0832642,0.67681779,128.2572,02/18.0/2020,2000,g 13.5,4.0
# From MPC105243
330P/Catalina,e,15.6939,293.0967,189.0141,6.634441,0.0576763,0.54926021,73.1579,02/18.0/2020,2000,g 12.0,4.0
# From MPC110497
331P/Gibbs,e,9.7403,216.7782,183.6919,3.002899,0.1894057,0.04050138,317.5025,02/18.0/2020,2000,g 12.0,4.0
# From MPEC 2016-K18
332P/Ikeya-Murakami,e,9.3817,3.7946,152.3882,3.087611,0.1816645,0.48948163,260.5420,02/18.0/2020,2000,g 18.0,4.0
# From MPEC 2016-EI8
332P-B/Ikeya-Murakami,e,9.3805,3.8028,152.3711,3.082329,0.1821317,0.48970701,359.9699,03/17.0/2016,2000,g 19.0,4.0
# From MPEC 2016-K18
332P-C/Ikeya-Murakami,e,9.3807,3.7950,152.3794,3.087577,0.1816675,0.48948701,260.5546,02/18.0/2020,2000,g 16.5,4.0
# From MPEC 2016-ED0
332P-D/Ikeya-Murakami,e,9.3761,3.7923,152.4393,3.081138,0.1822373,0.48977814,359.9486,03/17.0/2016,2000,g 19.0,4.0
# From MPEC 2016-ED0
332P-E/Ikeya-Murakami,e,9.3774,3.8228,152.2825,3.079877,0.1823493,0.48922008,359.9889,03/17.0/2016,2000,g 21.0,4.0
# From MPEC 2016-ED0
332P-F/Ikeya-Murakami,e,9.5293,3.4757,152.8203,3.163214,0.1751908,0.49918860,359.8501,03/17.0/2016,2000,g 21.0,4.0
# From MPEC 2016-ED0
332P-G/Ikeya-Murakami,e,9.2523,3.6955,154.4000,3.050519,0.1849880,0.49200362,359.9006,03/19.0/2016,2000,g 19.0,4.0
# From MPC100285
332P-H/Ikeya-Murakami,e,9.3812,3.7947,152.3802,3.087761,0.1816513,0.48952219,260.4983,02/18.0/2020,2000,g 19.0,4.0
# From MPEC 2016-ED0
332P-I/Ikeya-Murakami,e,9.3791,3.8048,152.3297,3.081767,0.1821815,0.48955490,359.9360,03/17.0/2016,2000,g 20.5,2.0
# From MPEC 2016-EI8
332P-J/Ikeya-Murakami,e,9.4296,3.6729,152.7712,3.115165,0.1792596,0.49429435,359.8613,03/17.0/2016,2000,g 20.5,2.0
# From MPC104796
333P/LINEAR,e,131.9681,115.6189,26.0782,4.220758,0.1136628,0.73605611,161.0595,02/18.0/2020,2000,g 15.0,4.0
# From MPC111774
334P/NEAT,e,20.5590,90.7692,89.4908,6.836900,0.0551335,0.35709220,54.1734,02/18.0/2020,2000,g 10.5,4.0
# From MPC100285
335P/Gibbs,e,7.2902,330.8420,162.2430,3.579040,0.1455641,0.54496958,228.0042,02/18.0/2020,2000,g 17.0,4.0
# From MPC105244
336P/McNaught,e,17.8340,298.2300,308.6901,5.028859,0.0873977,0.44587062,96.9852,02/18.0/2020,2000,g 13.5,4.0
# From MPC112394
337P/WISE,e,15.3736,106.0721,160.9654,3.287974,0.1653147,0.49694162,217.2007,02/18.0/2020,2000,g 17.0,4.0
# From MPC104796
338P/McNaught,e,25.3638,9.7875,4.4086,3.899185,0.1280098,0.41073960,151.4368,02/18.0/2020,2000,g 12.0,4.0
# From MPC101101
339P/Gibbs,e,5.7373,172.7574,27.5200,3.694959,0.1387681,0.63613393,181.0191,02/18.0/2020,2000,g 17.0,4.0
# From MPC102957
340P/Boattini,e,2.0797,291.7282,35.7735,4.251981,0.1124132,0.28040344,133.3049,02/18.0/2020,2000,g 13.0,4.0
# From MPC109148
341P/Gibbs,e,3.7940,30.0121,312.0923,4.295432,0.1107118,0.41479685,150.7337,02/18.0/2020,2000,g 12.5,4.0
# From MPC101101
342P/SOHO,e,12.5224,40.2559,61.1072,3.042408,0.1857282,0.98329577,0.0000,10/19.3559/2021,2000,g  9.0,4.0
# From MPC109148
343P/NEAT-LONEOS,e,5.5829,257.2457,137.3935,5.463793,0.0771725,0.58349168,86.1576,02/18.0/2020,2000,g 14.0,4.0
# From MPC109148
344P/Read,e,3.4902,273.1929,140.4488,4.869281,0.0917290,0.42127111,110.4907,02/18.0/2020,2000,g 13.0,4.0
# From MPC109148
345P/LINEAR,e,2.7260,154.4970,196.3501,4.041415,0.1213120,0.22026151,159.1807,02/18.0/2020,2000,g 12.0,4.0
# From MPC110086
346P/Catalina,e,22.1856,102.4679,336.0440,4.477155,0.1040401,0.50244535,114.2926,02/18.0/2020,2000,g 14.0,4.0
# From MPC108599
347P/PANSTARRS,e,11.7476,261.0494,98.2890,3.608010,0.1438144,0.38506825,180.4023,02/18.0/2020,2000,g 15.0,4.0
# From MPC104796
348P/PANSTARRS,e,17.7157,312.9463,135.1341,3.158785,0.1755593,0.30568915,232.7811,02/18.0/2020,2000,g 14.0,4.0
# From MPC112394
349P/Lemmon,e,5.4915,331.7557,256.0273,3.571233,0.1460416,0.29968708,132.2554,02/18.0/2020,2000,g 14.0,4.0
# From MPC111775
350P/McNaught,e,7.3578,65.4294,141.5877,4.101722,0.1186464,0.09050237,93.2203,02/18.0/2020,2000,g 14.0,4.0
# From MPC105244
351P/Wiegert-PANSTARRS,e,12.7907,283.4494,352.5892,4.436534,0.1054723,0.29621117,163.7583,02/18.0/2020,2000,g 12.5,4.0
# From MPC110086
352P/Skiff,e,21.0101,28.1223,309.1019,6.633339,0.0576907,0.61796326,56.0214,02/18.0/2020,2000,g 11.5,4.0
# From MPEC 2020-AA5
353P/McNaught,e,28.4228,121.5618,230.3775,4.171753,0.1156714,0.46965345,91.2500,02/18.0/2020,2000,g 14.5,4.0
# From MPC105545
354P/LINEAR,e,5.2553,320.1314,133.0906,2.290013,0.2844115,0.12564693,340.2115,02/18.0/2020,2000,g 15.5,4.0
# From MPEC 2020-AA5
355P/LINEAR-NEAT,e,11.0338,51.4483,336.2604,3.473435,0.1522528,0.50656113,130.6915,02/18.0/2020,2000,g 15.5,2.0
# From MPC109148
356P/WISE,e,9.6328,160.7889,226.0645,4.161992,0.1160786,0.35435754,92.0681,02/18.0/2020,2000,g 14.0,4.0
# From MPC114609
357P/Hill,e,6.3088,44.5929,1.4566,4.463445,0.1045198,0.43430291,65.8719,02/18.0/2020,2000,g 15.5,4.0
# From MPC106350
358P/PANSTARRS,e,11.0571,85.7186,299.7721,3.149337,0.1763500,0.23785037,119.5047,02/18.0/2020,2000,g 18.0,4.0
# From MPC110086
359P/LONEOS,e,10.2633,149.7640,200.1177,4.639545,0.0986259,0.32367674,89.8780,02/18.0/2020,2000,g 13.5,4.0
# From MPC108599
360P/WISE,e,24.0885,2.2009,354.1122,3.703617,0.1382818,0.49832069,126.3037,02/18.0/2020,2000,g 19.5,6.0
# From MPC114609
361P/Spacewatch,e,13.8841,203.2607,219.1485,4.942557,0.0896967,0.43772595,53.4395,02/18.0/2020,2000,g 12.0,4.0
# From MPEC 2017-V13
362P/,e,15.5618,192.5994,53.6456,3.966744,0.1247535,0.28014759,158.8033,02/18.0/2020,2000,g 12.9,2.0
# From MPC114609
363P/Lemmon,e,4.0646,165.2143,320.7139,3.434152,0.1548727,0.56117819,107.0965,02/18.0/2020,2000,g 17.5,4.0
# From MPC114609
364P/PANSTARRS,e,12.1501,46.2177,211.9660,2.878499,0.2018157,0.72258576,121.8217,02/18.0/2020,2000,g 17.0,2.0
# From MPC111775
365P/PANSTARRS,e,9.8397,87.4327,66.2378,3.181248,0.1737032,0.57456518,128.0164,02/18.0/2020,2000,g 17.0,4.0
# From MPC114610
366P/Spacewatch,e,8.8595,70.7533,153.1754,3.495602,0.1508068,0.34865226,86.9735,02/18.0/2020,2000,g 15.0,4.0
# From MPC112395
367P/Catalina,e,8.4638,58.7142,172.9239,3.504978,0.1502021,0.28071266,91.0979,02/18.0/2020,2000,g 17.5,2.0
# From MPC114610
368P/NEAT,e,15.4842,257.9742,118.7854,5.526759,0.0758575,0.62600021,39.5767,02/18.0/2020,2000,g 14.0,4.0
# From MPC114610
369P/Hill,e,10.3089,47.3111,13.2393,4.387602,0.1072416,0.55410957,52.6496,02/18.0/2020,2000,g 15.0,4.0
# From MPC114610
370P/NEAT,e,19.3978,55.1507,356.7258,6.439347,0.0603172,0.61427796,37.3145,02/18.0/2020,2000,g 13.0,4.0
# From MPC114610
371P/LINEAR-Skiff,e,17.3783,67.3305,308.4611,4.181799,0.1152549,0.47620758,57.7888,02/18.0/2020,2000,g 16.0,4.0
# From MPEC 2019-TG9
372P/McNaught,e,9.5094,325.8269,27.0675,4.501248,0.1032059,0.15236739,50.1315,02/18.0/2020,2000,g 13.5,4.0
# From MPC114610
373P/Rinner,e,13.7578,231.9534,221.1818,3.806301,0.1327240,0.39226332,41.8034,02/18.0/2020,2000,g 14.5,4.0
# From MPC114610
374P/Larson,e,10.7586,7.9210,51.5669,4.976654,0.0887765,0.46227390,35.7993,02/18.0/2020,2000,g 14.0,4.0
# From MPC114610
375P/Hill,e,17.3634,359.9565,119.4541,5.560703,0.0751639,0.65906293,31.8383,02/18.0/2020,2000,g 16.0,4.0
# From MPC114610
376P/LONEOS,e,1.1928,314.8535,285.4100,5.871276,0.0692796,0.51789434,9.8272,02/18.0/2020,2000,g 12.5,4.0
# From MPC115888
377P/Scotti,e,9.0217,226.0598,354.9245,6.714677,0.0566456,0.25286016,351.8521,02/18.0/2020,2000,g  9.5,4.0
# From MPEC 2019-TG9
378P/McNaught,e,19.1102,94.5144,194.2054,6.356641,0.0614982,0.46824788,344.8240,02/18.0/2020,2000,g 12.0,4.0
# From MPC115889
379P/Spacewatch,e,12.3838,183.9994,31.2436,3.528139,0.1487255,0.33861879,29.8009,02/18.0/2020,2000,g 15.0,4.0
# From MPEC 2019-TG9
380P/PANSTARRS,e,8.2394,133.0403,90.1293,4.541940,0.1018221,0.32867768,26.0630,02/18.0/2020,2000,g 12.5,4.0
# From MPEC 2019-TG9
381P/LINEAR-Spacewatch,e,28.3765,173.7914,173.0999,7.113015,0.0519545,0.68150518,7.4868,02/18.0/2020,2000,g 17.5,2.0
# From MPC115889
382P/Larson,e,7.6599,178.1974,174.5422,6.176543,0.0642075,0.29487084,308.7856,02/18.0/2020,2000,g  8.0,4.0
# From MPC118844
383P/Christensen,e,12.3223,207.8982,133.6207,3.543121,0.1477832,0.59943836,16.9640,02/18.0/2020,2000,g 18.0,4.0
# From MPEC 2020-C98
384P/Kowalski,e,7.2811,354.2296,37.6496,2.901877,0.1993819,0.61529799,25.8374,02/18.0/2020,2000,g 19.5,4.0
# From MPEC 2020-C98
385P/Hill,e,16.8261,357.0769,44.3308,4.287547,0.1110173,0.40115231,17.3422,02/18.0/2020,2000,g 13.0,4.0
# From MPEC 2020-C98
386P/PANSTARRS,e,15.2287,134.9499,353.2725,4.058474,0.1205480,0.41648482,337.8875,02/18.0/2020,2000,g 14.5,4.0
# From MPEC 2020-C98
387P/Boattini,e,8.9170,259.3396,162.8004,4.802289,0.0936551,0.73600064,15.4368,02/18.0/2020,2000,g 15.0,4.0
# From MPEC 2020-C98
388P/Gibbs,e,23.8586,37.0541,42.4161,5.248969,0.0819583,0.61803800,17.1613,02/18.0/2020,2000,g 13.0,4.0
# From MPC118845
389P/Siding Spring,e,160.0687,218.8394,249.2982,5.629203,0.0737962,0.70451752,3.7428,02/18.0/2020,2000,g 16.0,4.0
